OBJECT_NAME,OBJECT_ID,EPOCH,MEAN_MOTION,ECCENTRICITY,INCLINATION,RA_OF_ASC_NODE,ARG_OF_PERICENTER,MEAN_ANOMALY,EPHEMERIS_TYPE,CLASSIFICATION_TYPE,NORAD_CAT_ID,ELEMENT_SET_NO,REV_AT_EPOCH,BSTAR,MEAN_MOTION_DOT,MEAN_MOTION_DDOT
KUIPER-00513,2026-140G,2026-07-09T14:42:03.449088,15.38069388,.00070475,51.8820,290.2737,316.5040,43.5391,0,U,69598,999,468,.69985976E-3,.2635E-3,0
KUIPER-00516,2026-140H,2026-07-09T14:51:04.423680,15.37505084,.00068355,51.8784,290.3069,334.1487,25.9157,0,U,69599,999,468,.33369668E-3,.12103E-3,0
KUIPER-00517,2026-140J,2026-07-10T18:27:04.144608,15.38782213,.0010548,51.8769,284.5171,276.2013,83.7773,0,U,69600,999,486,.93389E-3,.36214E-3,0
KUIPER-00520,2026-140K,2026-07-09T14:52:36.223680,15.37569154,.00068809,51.8793,290.3215,333.8181,26.2457,0,U,69601,999,468,.7027917E-3,.26029E-3,0
KUIPER-00522,2026-140L,2026-07-10T18:21:42.884352,15.38590332,.0013177,51.8779,284.4982,248.4220,111.5363,0,U,69602,999,486,.45258E-3,.17206E-3,0
KUIPER-00528,2026-140M,2026-07-09T14:55:41.422944,15.37415170,.00059269,51.8764,290.3271,340.6948,19.3813,0,U,69603,999,468,.66168979E-3,.24351E-3,0
KUIPER-00532,2026-140N,2026-07-10T17:39:26.803296,15.36637791,.0005524,51.8765,285.0357,15.1321,344.9829,0,U,69604,999,485,.48974E-4,.139E-4,0
KUIPER-00533,2026-140P,2026-07-09T14:36:56.956320,15.38181942,.00079541,51.8775,290.2427,306.5126,53.5128,0,U,69605,999,468,.33629047E-3,.1248E-3,0
KUIPER-00534,2026-140Q,2026-07-10T18:14:38.418432,15.38647112,.0013568,51.8812,284.4724,247.7189,112.2360,0,U,69606,999,486,.48352E-3,.1845E-3,0
KUIPER-00537,2026-140R,2026-07-10T18:04:15.076128,15.34281454,.0010811,51.8775,285.1573,40.3192,319.8593,0,U,69607,999,485,.53186E-3,.1761E-3,0
KUIPER-00538,2026-140S,2026-07-10T18:54:04.979232,15.37674850,.0006367,51.8801,284.6464,326.1928,33.8652,0,U,69608,999,486,.59406E-3,.22003E-3,0
KUIPER-00540,2026-140T,2026-07-10T14:27:11.332800,15.36908561,.0006428,51.8833,285.6586,10.6370,349.4751,0,U,69609,999,483,.50281E-3,.18092E-3,0
KUIPER-00541,2026-140U,2026-07-10T18:41:00.767040,15.38379378,.0007704,51.8789,284.5871,305.5272,54.4996,0,U,69610,999,486,.46807E-3,.17654E-3,0
KUIPER-00542,2026-140V,2026-07-10T18:38:46.552416,15.38276853,.0007549,51.8786,284.5729,285.3956,74.6197,0,U,69611,999,486,.63E-3,.23837E-3,0
KUIPER-00543,2026-140W,2026-07-09T15:08:32.804736,15.36747809,.00077039,51.8763,290.3813,16.9946,343.1297,0,U,69612,999,468,.31555921E-3,.11141E-3,0
KUIPER-00544,2026-140X,2026-07-10T18:44:46.596768,15.38131723,.0007076,51.8812,284.6053,308.8347,51.2008,0,U,69613,999,486,.72796E-3,.27485E-3,0
KUIPER-00546,2026-140Y,2026-07-10T18:15:47.363040,15.38814926,.0014464,51.8776,284.4708,245.8653,114.0823,0,U,69614,999,486,.79775E-3,.30938E-3,0
KUIPER-00547,2026-140Z,2026-07-10T18:35:18.230784,15.37847980,.0010813,51.8821,284.5670,274.6951,85.2801,0,U,69615,999,486,.471E-3,.17472E-3,0
KUIPER-00549,2026-140AA,2026-07-10T19:02:19.834368,15.37287706,.0007957,51.8776,284.6776,0.6549,359.4447,0,U,69616,999,486,.77307E-3,.28424E-3,0
KUIPER-00550,2026-140AB,2026-07-09T20:24:01.390176,15.33047749,.00072742,51.8790,289.5986,38.0407,322.1091,0,U,69617,999,471,-.23441832E-2,-.75643E-3,0
KUIPER-00551,2026-140AC,2026-07-10T18:25:16.016736,15.38381561,.0012348,51.8758,284.5105,254.2975,105.6650,0,U,69618,999,486,.83278E-3,.3183E-3,0
KUIPER-00554,2026-140AD,2026-07-10T06:04:17.637024,15.37895633,.0010891,51.8775,287.0639,274.9137,85.0606,0,U,69619,999,478,.59105486E-3,.22076E-3,0
KUIPER-00555,2026-140AE,2026-07-10T18:28:54.569856,15.37809087,.0011295,51.8822,284.5241,253.2646,106.7102,0,U,69620,999,486,-.15269E-2,-.57717E-3,0
KUIPER-00556,2026-140AF,2026-07-10T06:00:22.801824,15.38260697,.00116501,51.8812,287.0516,251.0389,108.9336,0,U,69621,999,478,.54617321E-3,.20618E-3,0
KUIPER-00557,2026-140AG,2026-07-10T18:39:35.449632,15.37516845,.000981,51.8794,284.5803,280.2133,79.7748,0,U,69622,999,486,.43621E-3,.15968E-3,0
KUIPER-00560,2026-140AH,2026-07-10T13:49:30.004608,15.38803489,.0008505,51.8781,285.4808,293.7135,66.2960,0,U,69623,999,483,.7538E-3,.29128E-3,0
KUIPER-00561,2026-140AJ,2026-07-10T06:05:27.559680,15.38655455,.00081103,51.8821,287.0794,293.2180,66.7953,0,U,69624,999,478,.56479354E-3,.21594E-3,0
KUIPER-00564,2026-140AK,2026-07-10T08:00:03.000384,15.37260467,.00092617,51.8816,286.6867,280.2463,161.3962,0,U,69625,999,404,-.40894155E-4,-.1914E-4,0
KUIPER-00567,2026-140AL,2026-07-10T18:25:40.628640,15.37993440,.0014214,51.8786,284.5160,269.5283,90.4076,0,U,69626,999,486,.54503E-2,.213007E-2,0
KUIPER-00573,2026-140AM,2026-07-10T18:44:45.224736,15.37401065,.0009339,51.8780,284.5973,267.6169,92.3748,0,U,69627,999,486,.48619E-3,.17777E-3,0
